ONEWEB-0346             
1 49212U 21083AC  26171.18039313  .00000081  00000+0  17291-3 0  9998
2 49212  87.9162 334.8616 0002237  79.0390 281.0993 13.18685828230373
ONEWEB-0348             
1 49213U 21083AD  26171.29528829  .00000080  00000+0  16475-3 0  9998
2 49213  87.9198 273.8210 0002475  94.4112 265.7305 13.20771257237224
ONEWEB-0350             
1 49214U 21083AE  26171.17633941  .00000378  00000+0  10074-2 0  9996
2 49214  87.8961 319.6313 0002119  99.0573 261.0796 13.12942796231329
ONEWEB-0351             
1 49215U 21083AF  26171.28840966  .00000072  00000+0  14631-3 0  9991
2 49215  87.9198 273.8212 0002181 124.6631 235.4708 13.20770728237182
ONEWEB-0352             
1 49216U 21083AG  26171.14832998 -.00000126  00000+0 -37879-3 0  9994
2 49216  87.8955 319.6426 0001743 110.7918 249.3398 13.13470607231410
ONEWEB-0354             
1 49217U 21083AH  26171.23972783  .00000123  00000+0  26984-3 0  9992
2 49217  87.9198 273.8299 0002430  98.8628 261.2781 13.20773266237216
ONEWEB-0355             
1 49218U 21083AJ  26171.17725366  .00000299  00000+0  78518-3 0  9993
2 49218  87.8954 319.6378 0001928 106.2694 253.8648 13.13469558231290
ONEWEB-0357             
1 49219U 21083AK  26171.23636169  .00000095  00000+0  20197-3 0  9997
2 49219  87.9199 273.8250 0002007 106.5183 253.6171 13.20772881237219
JILIN-1 GAOFEN 2D       
1 49256U 21086A   26171.27317787  .00003938  00000+0  23869-3 0  9995
2 49256  97.6486 293.9944 0034482 132.6679 227.7465 15.10662307261185
SHIYAN-10 01 (SY-10 01) 
1 49258U 21087A   26159.42816681  .00000790  00000+0  00000+0 0  9999
2 49258  63.1127 221.0467 6930785 269.8654  17.6440  2.00652330 34358
LANDSAT 9               
1 49260U 21088A   26171.14933910  .00000238  00000+0  62959-4 0  9994
2 49260  98.2279 241.2909 0001329  85.0666 275.0684 14.57098814251437
CS1                     
1 49261U 21088B   26171.14236032  .00012889  00000+0  38333-3 0  9999
2 49261  97.3754 234.4183 0013223  73.9034 286.3664 15.34783847260879
CS2                     
1 49262U 21088C   26171.15314583  .00013504  00000+0  38111-3 0  9998
2 49262  97.3808 236.8773 0010772  77.8062 282.4388 15.36450784260975
CUTE                    
1 49263U 21088D   26171.26453893  .00137923  93909-5  37887-3 0  9996
2 49263  97.4181 270.8579 0007619 223.6443 136.4231 15.93975753263040
CUPID                   
1 49264U 21088E   26171.14254596  .00006193  00000+0  24282-3 0  9996
2 49264  97.3862 232.3027 0013237  59.4596 300.7947 15.26039156260630
ONEWEB-0332             
1 49279U 21090A   26171.26334212 -.00000006  00000+0 -49876-4 0  9998
2 49279  87.8968 289.0957 0001702 102.0727 258.0594 13.14501746227981
ONEWEB-0347             
1 49280U 21090B   26171.30202316  .00000122  00000+0  26798-3 0  9998
2 49280  87.9195 273.8198 0001768 101.5168 258.6164 13.20771684231452
ONEWEB-0349             
1 49281U 21090C   26171.18249372  .00000042  00000+0  71328-4 0  9999
2 49281  87.9197 273.8442 0002027 101.0836 259.0526 13.20772453230229
ONEWEB-0353             
1 49282U 21090D   26170.87483185  .00000039  00000+0  69469-4 0  9996
2 49282  87.8969 289.1688 0001654 101.5886 258.5429 13.14502814227938
ONEWEB-0356             
1 49283U 21090E   26170.80201543  .00000029  00000+0  40275-4 0  9999
2 49283  87.9196 273.9133 0001982  77.1821 282.9533 13.20773323230178
ONEWEB-0358             
1 49284U 21090F   26171.29073773  .00000075  00000+0  15392-3 0  9998
2 49284  87.9199 273.8221 0002102  95.1699 264.9674 13.20237720230966
ONEWEB-0359             
1 49285U 21090G   26171.28349276  .00000050  00000+0  91862-4 0  9992
2 49285  87.9197 273.8173 0002271  98.3142 261.8249 13.20773440230942
ONEWEB-0360             
1 49286U 21090H   26171.27338748 -.00000013  00000+0 -63971-4 0  9995
2 49286  87.9196 273.8255 0002086 102.7407 257.3960 13.20769447230257
ONEWEB-0361             
1 49287U 21090J   26170.80033928  .00000040  00000+0  65466-4 0  9995
2 49287  87.9197 273.9181 0002100  98.0775 262.0597 13.20771204230646
ONEWEB-0362             
1 49288U 21090K   26171.28571732 -.00000010  00000+0 -57864-4 0  9991
2 49288  87.9173 304.3604 0001960 107.1554 252.9794 13.19724250227325
ONEWEB-0363             
1 49289U 21090L   26171.27003031 -.00000013  00000+0 -64884-4 0  9996
2 49289  87.9198 273.8249 0001997  90.8704 269.2658 13.20770440230714
ONEWEB-0364             
1 49290U 21090M   26171.30875242 -.00000048  00000+0 -14959-3 0  9998
2 49290  87.9197 273.8252 0002043 100.9236 259.2127 13.20772641231856
ONEWEB-0365             
1 49291U 21090N   26171.29519727  .00000030  00000+0  42301-4 0  9992
2 49291  87.9182 304.3470 0001816 102.6753 257.4583 13.19724881226832
ONEWEB-0366             
1 49292U 21090P   26171.25224952  .00000179  00000+0  44813-3 0  9995
2 49292  87.8967 289.0954 0001963 100.1458 259.9894 13.14502584227963
ONEWEB-0367             
1 49293U 21090Q   26171.26920006 -.00000007  00000+0 -50144-4 0  9997
2 49293  87.9198 273.8262 0001942 105.8356 254.2991 13.20771183230230
